ONEWEB-0281             
1 48999U 21060AJ  23343.13571067 -.00000003  00000+0 -42575-4 0  9994
2 48999  87.9090  52.0842 0001745  98.6215 261.5114 13.16595672119740
ONEWEB-0282             
1 49000U 21060AK  23342.78528693 -.00000003  00000+0 -42195-4 0  9993
2 49000  87.9088  52.1705 0001851 118.1927 241.9391 13.16594226118366
ONEWEB-0283             
1 49001U 21060AL  23343.15470882 -.00000174  00000+0 -48881-3 0  9998
2 49001  87.9080  52.1089 0001396 110.3431 249.7850 13.16593247119743
ONEWEB-0284             
1 49002U 21060AM  23342.23641387 -.00000050  00000+0 -16353-3 0  9999
2 49002  87.9078  52.2869 0002242 115.6430 244.4933 13.16595194118281
ONEWEB-0285             
1 49075U 21075A   23343.49742685 -.00000198  00000+0 -58430-3 0  9992
2 49075  87.9012 173.7908 0001463  90.7942 269.3354 13.12446673115426
ONEWEB-0286             
1 49076U 21075B   23342.55387264 -.00000163  00000+0 -48902-3 0  9992
2 49076  87.8999 173.9868 0001808  76.2696 283.8634 13.12442736114657
ONEWEB-0287             
1 49077U 21075C   23342.53120968  .00000020  00000+0  18582-4 0  9999
2 49077  87.9200 189.0914 0001977  85.1218 275.0139 13.17649498112256
ONEWEB-0288             
1 49078U 21075D   23343.45281489  .00000504  00000+0  13665-2 0  9990
2 49078  87.9002 173.8133 0001676  86.4721 273.6599 13.12447037115404
